0 COSMOS 1275 DEB
1 12662U 81053S   13283.12088083  .00000141  00000-0  12683-3 0  8405
2 12662 082.9572 060.8009 0022576 043.3406 081.2638 13.76935046617126
0 COSMOS 1275 DEB
1 12662U 81053S   13284.13733919  .00000141  00000-0  12750-3 0  8418
2 12662 082.9575 060.0470 0022506 040.5128 079.7946 13.76935436617268
0 COSMOS 1275 DEB
1 12662U 81053S   13285.50259545  .00000104  00000-0  90240-4 0  8429
2 12662 082.9578 059.0342 0022415 036.7312 007.2837 13.76935799617456
0 COSMOS 1275 DEB
1 12662U 81053S   13286.82427633  .00000136  00000-0  12183-3 0  8435
2 12662 082.9582 058.0539 0022334 033.0820 078.7635 13.76935998617632
0 COSMOS 1275 DEB
1 12662U 81053S   13287.84238336  .00000137  00000-0  12280-3 0  8448
2 12662 082.9585 057.2988 0022265 030.2145 085.5060 13.76936306617773
0 COSMOS 1275 DEB
1 12662U 81053S   13288.85875395  .00000156  00000-0  14284-3 0  8450
2 12662 082.9586 056.5451 0022186 027.3118 083.6828 13.76936498617919
0 COSMOS 1275 DEB
1 12662U 81053S   13290.09647142  .00000172  00000-0  15895-3 0  8464
2 12662 082.9587 055.6272 0022102 023.8566 099.0041 13.76936878618086
0 COSMOS 1275 DEB
1 12662U 81053S   13291.46111308  .00000181  00000-0  16794-3 0  8476
2 12662 082.9589 054.6154 0022017 020.0632 023.4692 13.76937284618270
0 COSMOS 1275 DEB
1 12662U 81053S   13292.85686653  .00000205  00000-0  19205-3 0  8488
2 12662 082.9589 053.5804 0021925 016.1001 102.2389 13.76937623618460
0 COSMOS 1275 DEB
1 12662U 81053S   13294.09261928  .00000206  00000-0  19376-3 0  8491
2 12662 082.9590 052.6641 0021842 012.6398 107.8364 13.76938284618636
0 COSMOS 1275 DEB
1 12662U 81053S   13295.10929522  .00000202  00000-0  18900-3 0  8505
2 12662 082.9590 051.9101 0021776 009.7405 107.5290 13.76938609618772
0 COSMOS 1275 DEB
1 12662U 81053S   13296.12627558  .00000192  00000-0  17950-3 0  8515
2 12662 082.9591 051.1560 0021716 006.8410 108.7306 13.76939123618911
